LEMUR-2-ANDIS           
1 42838U 17042P   26068.55941107  .00023598  00000+0  79875-3 0  9998
2 42838  97.3659 249.7950 0009101   4.3248 355.8070 15.30557934473198
STARLINK-33712          
1 63797U 25091Y   26068.38078278  .00034560  00000+0  12585-2 0  9994
2 63797  43.0012  57.9029 0001402 242.4408 117.6301 15.27606334 48814
